SENTINEL-6              
1 46984U 20086A   24162.90749435 -.00000039  00000+0  95700-4 0  9990
2 46984  66.0405 224.3127 0007899 270.3349  89.6761 12.80928648166026
